{
    "type": "FeatureCollection",
    "features": [
        {
            "type": "Feature",
            "properties": {
                "route_name": "Primary Route",
                "route_number": 1,
                "distance_km": 16.1,
                "duration_min": 17.1,
                "expressway_pct": 19.13,
                "blocked": true,
                "blocked_roads": "Rajiv Gandhi IT Expressway",
                "emergency_score": null,
                "selected": false
            },
            "geometry": {
                "type": "LineString",
                "coordinates": [
                    [
                        80.220692,
                        12.914585
                    ],
                    [
                        80.220728,
                        12.914628
                    ],
                    [
                        80.220771,
                        12.914656
                    ],
                    [
                        80.22083,
                        12.914677
                    ],
                    [
                        80.220914,
                        12.91468
                    ],
                    [
                        80.221576,
                        12.914516
                    ],
                    [
                        80.223593,
                        12.914029
                    ],
                    [
                        80.224164,
                        12.913897
                    ],
                    [
                        80.224293,
                        12.913868
                    ],
                    [
                        80.224451,
                        12.91382
                    ],
                    [
                        80.224592,
                        12.913708
                    ],
                    [
                        80.225157,
                        12.913154
                    ],
                    [
                        80.225535,
                        12.912782
                    ],
                    [
                        80.225576,
                        12.912741
                    ],
                    [
                        80.225684,
                        12.912647
                    ],
                    [
                        80.225699,
                        12.912627
                    ],
                    [
                        80.226126,
                        12.912229
                    ],
                    [
                        80.226495,
                        12.911877
                    ],
                    [
                        80.226627,
                        12.91179
                    ],
                    [
                        80.227119,
                        12.911639
                    ],
                    [
                        80.228648,
                        12.911237
                    ],
                    [
                        80.228779,
                        12.911203
                    ],
                    [
                        80.22882,
                        12.91144
                    ],
                    [
                        80.228865,
                        12.911782
                    ],
                    [
                        80.228878,
                        12.911841
                    ],
                    [
                        80.228928,
                        12.912161
                    ],
                    [
                        80.228942,
                        12.912208
                    ],
                    [
                        80.228956,
                        12.912261
                    ],
                    [
                        80.229027,
                        12.912761
                    ],
                    [
                        80.229109,
                        12.912751
                    ],
                    [
                        80.229353,
                        12.914666
                    ],
                    [
                        80.229591,
                        12.916223
                    ],
                    [
                        80.22963,
                        12.91651
                    ],
                    [
                        80.229719,
                        12.917164
                    ],
                    [
                        80.229778,
                        12.917597
                    ],
                    [
                        80.229828,
                        12.917965
                    ],
                    [
                        80.229981,
                        12.9191
                    ],
                    [
                        80.230185,
                        12.92072
                    ],
                    [
                        80.230353,
                        12.921962
                    ],
                    [
                        80.23053,
                        12.923147
                    ],
                    [
                        80.230519,
                        12.923322
                    ],
                    [
                        80.230501,
                        12.923476
                    ],
                    [
                        80.23062,
                        12.924387
                    ],
                    [
                        80.230689,
                        12.924594
                    ],
                    [
                        80.230923,
                        12.926303
                    ],
                    [
                        80.231129,
                        12.927719
                    ],
                    [
                        80.231157,
                        12.92794
                    ],
                    [
                        80.231294,
                        12.929011
                    ],
                    [
                        80.231402,
                        12.929467
                    ],
                    [
                        80.231538,
                        12.930045
                    ],
                    [
                        80.231576,
                        12.930186
                    ],
                    [
                        80.231682,
                        12.930573
                    ],
                    [
                        80.231704,
                        12.930655
                    ],
                    [
                        80.231725,
                        12.930733
                    ],
                    [
                        80.23175,
                        12.930809
                    ],
                    [
                        80.232034,
                        12.931679
                    ],
                    [
                        80.232082,
                        12.931824
                    ],
                    [
                        80.232261,
                        12.932386
                    ],
                    [
                        80.232397,
                        12.932748
                    ],
                    [
                        80.232574,
                        12.933212
                    ],
                    [
                        80.23265,
                        12.933386
                    ],
                    [
                        80.23276,
                        12.933665
                    ],
                    [
                        80.23279,
                        12.933743
                    ],
                    [
                        80.233084,
                        12.934357
                    ],
                    [
                        80.233264,
                        12.934733
                    ],
                    [
                        80.233622,
                        12.935487
                    ],
                    [
                        80.233681,
                        12.935612
                    ],
                    [
                        80.233683,
                        12.935616
                    ],
                    [
                        80.233773,
                        12.935809
                    ],
                    [
                        80.233827,
                        12.935926
                    ],
                    [
                        80.233867,
                        12.936012
                    ],
                    [
                        80.234225,
                        12.936746
                    ],
                    [
                        80.234792,
                        12.937938
                    ],
                    [
                        80.23544,
                        12.939237
                    ],
                    [
                        80.235657,
                        12.939674
                    ],
                    [
                        80.235834,
                        12.940102
                    ],
                    [
                        80.235971,
                        12.940569
                    ],
                    [
                        80.236217,
                        12.941499
                    ],
                    [
                        80.236238,
                        12.9416
                    ],
                    [
                        80.236315,
                        12.941861
                    ],
                    [
                        80.236449,
                        12.942373
                    ],
                    [
                        80.236576,
                        12.942678
                    ],
                    [
                        80.236631,
                        12.942809
                    ],
                    [
                        80.236895,
                        12.943178
                    ],
                    [
                        80.23713,
                        12.943442
                    ],
                    [
                        80.237351,
                        12.943656
                    ],
                    [
                        80.237549,
                        12.943842
                    ],
                    [
                        80.237564,
                        12.943862
                    ],
                    [
                        80.237651,
                        12.943925
                    ],
                    [
                        80.237894,
                        12.944178
                    ],
                    [
                        80.238014,
                        12.944285
                    ],
                    [
                        80.238063,
                        12.944329
                    ],
                    [
                        80.238102,
                        12.944364
                    ],
                    [
                        80.238467,
                        12.94469
                    ],
                    [
                        80.238678,
                        12.944892
                    ],
                    [
                        80.238801,
                        12.945009
                    ],
                    [
                        80.239024,
                        12.94523
                    ],
                    [
                        80.239185,
                        12.945442
                    ],
                    [
                        80.239313,
                        12.945662
                    ],
                    [
                        80.239409,
                        12.945838
                    ],
                    [
                        80.239991,
                        12.947251
                    ],
                    [
                        80.240571,
                        12.948683
                    ],
                    [
                        80.24066,
                        12.948933
                    ],
                    [
                        80.240697,
                        12.94905
                    ],
                    [
                        80.240793,
                        12.949335
                    ],
                    [
                        80.240825,
                        12.949436
                    ],
                    [
                        80.240983,
                        12.949934
                    ],
                    [
                        80.241444,
                        12.951382
                    ],
                    [
                        80.241501,
                        12.951562
                    ],
                    [
                        80.241507,
                        12.95158
                    ],
                    [
                        80.241703,
                        12.952121
                    ],
                    [
                        80.241898,
                        12.952583
                    ],
                    [
                        80.241962,
                        12.952734
                    ],
                    [
                        80.242419,
                        12.953971
                    ],
                    [
                        80.2425,
                        12.954161
                    ],
                    [
                        80.242792,
                        12.954826
                    ],
                    [
                        80.242828,
                        12.954908
                    ],
                    [
                        80.243061,
                        12.955549
                    ],
                    [
                        80.243076,
                        12.95558
                    ],
                    [
                        80.243087,
                        12.955601
                    ],
                    [
                        80.243094,
                        12.95562
                    ],
                    [
                        80.243372,
                        12.956363
                    ],
                    [
                        80.243446,
                        12.956545
                    ],
                    [
                        80.243652,
                        12.957016
                    ],
                    [
                        80.243759,
                        12.957241
                    ],
                    [
                        80.243887,
                        12.957496
                    ],
                    [
                        80.244092,
                        12.957976
                    ],
                    [
                        80.244444,
                        12.958917
                    ],
                    [
                        80.244639,
                        12.959356
                    ],
                    [
                        80.244783,
                        12.95968
                    ],
                    [
                        80.245045,
                        12.960267
                    ],
                    [
                        80.245151,
                        12.960494
                    ],
                    [
                        80.245343,
                        12.960904
                    ],
                    [
                        80.245725,
                        12.96172
                    ],
                    [
                        80.246068,
                        12.962414
                    ],
                    [
                        80.246163,
                        12.962585
                    ],
                    [
                        80.246421,
                        12.963099
                    ],
                    [
                        80.24656,
                        12.963396
                    ],
                    [
                        80.246606,
                        12.96349
                    ],
                    [
                        80.246645,
                        12.963575
                    ],
                    [
                        80.246824,
                        12.963999
                    ],
                    [
                        80.247205,
                        12.965042
                    ],
                    [
                        80.247434,
                        12.965717
                    ],
                    [
                        80.247601,
                        12.966116
                    ],
                    [
                        80.247889,
                        12.966741
                    ],
                    [
                        80.248143,
                        12.967277
                    ],
                    [
                        80.248305,
                        12.967649
                    ],
                    [
                        80.248451,
                        12.968003
                    ],
                    [
                        80.248664,
                        12.968563
                    ],
                    [
                        80.248925,
                        12.969234
                    ],
                    [
                        80.249083,
                        12.969651
                    ],
                    [
                        80.249255,
                        12.970108
                    ],
                    [
                        80.24942,
                        12.970559
                    ],
                    [
                        80.249482,
                        12.970718
                    ],
                    [
                        80.249563,
                        12.970959
                    ],
                    [
                        80.249573,
                        12.970994
                    ],
                    [
                        80.249594,
                        12.971068
                    ],
                    [
                        80.249635,
                        12.971285
                    ],
                    [
                        80.249921,
                        12.972388
                    ],
                    [
                        80.24998,
                        12.972596
                    ],
                    [
                        80.250072,
                        12.972969
                    ],
                    [
                        80.25018,
                        12.973372
                    ],
                    [
                        80.250262,
                        12.973698
                    ],
                    [
                        80.250284,
                        12.973784
                    ],
                    [
                        80.250622,
                        12.974926
                    ],
                    [
                        80.2507,
                        12.975193
                    ],
                    [
                        80.250778,
                        12.975461
                    ],
                    [
                        80.251158,
                        12.976826
                    ],
                    [
                        80.251174,
                        12.976874
                    ],
                    [
                        80.251188,
                        12.976915
                    ],
                    [
                        80.251248,
                        12.977094
                    ],
                    [
                        80.251357,
                        12.977305
                    ],
                    [
                        80.251382,
                        12.977353
                    ],
                    [
                        80.251425,
                        12.977413
                    ],
                    [
                        80.251524,
                        12.977552
                    ],
                    [
                        80.251577,
                        12.977626
                    ],
                    [
                        80.251631,
                        12.97769
                    ],
                    [
                        80.251828,
                        12.977921
                    ],
                    [
                        80.252099,
                        12.978251
                    ],
                    [
                        80.252325,
                        12.978588
                    ],
                    [
                        80.252431,
                        12.978932
                    ],
                    [
                        80.252493,
                        12.979231
                    ],
                    [
                        80.252538,
                        12.979557
                    ],
                    [
                        80.25261,
                        12.979898
                    ],
                    [
                        80.252609,
                        12.979986
                    ],
                    [
                        80.252633,
                        12.980471
                    ],
                    [
                        80.252593,
                        12.981791
                    ],
                    [
                        80.252589,
                        12.981928
                    ],
                    [
                        80.252587,
                        12.981993
                    ],
                    [
                        80.252575,
                        12.982748
                    ],
                    [
                        80.252566,
                        12.982827
                    ],
                    [
                        80.252525,
                        12.983171
                    ],
                    [
                        80.252517,
                        12.983241
                    ],
                    [
                        80.252506,
                        12.983283
                    ],
                    [
                        80.252147,
                        12.984686
                    ],
                    [
                        80.252117,
                        12.984803
                    ],
                    [
                        80.252095,
                        12.984888
                    ],
                    [
                        80.252084,
                        12.98493
                    ],
                    [
                        80.251735,
                        12.986266
                    ],
                    [
                        80.25164,
                        12.98665
                    ],
                    [
                        80.251336,
                        12.987794
                    ],
                    [
                        80.25131,
                        12.9879
                    ],
                    [
                        80.251267,
                        12.988077
                    ],
                    [
                        80.251123,
                        12.988674
                    ],
                    [
                        80.251079,
                        12.98885
                    ],
                    [
                        80.251043,
                        12.988997
                    ],
                    [
                        80.250832,
                        12.98988
                    ],
                    [
                        80.250784,
                        12.990078
                    ],
                    [
                        80.250665,
                        12.990573
                    ],
                    [
                        80.250662,
                        12.990585
                    ],
                    [
                        80.250649,
                        12.990635
                    ],
                    [
                        80.250355,
                        12.9918
                    ],
                    [
                        80.250328,
                        12.991906
                    ],
                    [
                        80.250314,
                        12.99197
                    ],
                    [
                        80.249716,
                        12.9943
                    ],
                    [
                        80.24969,
                        12.994403
                    ],
                    [
                        80.249667,
                        12.994489
                    ],
                    [
                        80.249573,
                        12.994854
                    ],
                    [
                        80.249194,
                        12.996249
                    ],
                    [
                        80.248891,
                        12.997368
                    ],
                    [
                        80.24852,
                        12.998924
                    ],
                    [
                        80.248466,
                        12.999132
                    ],
                    [
                        80.248294,
                        12.999857
                    ],
                    [
                        80.248032,
                        13.000875
                    ],
                    [
                        80.247952,
                        13.001188
                    ],
                    [
                        80.247667,
                        13.002311
                    ],
                    [
                        80.247484,
                        13.003312
                    ],
                    [
                        80.247374,
                        13.004164
                    ],
                    [
                        80.247305,
                        13.004777
                    ],
                    [
                        80.247264,
                        13.005139
                    ],
                    [
                        80.247187,
                        13.005282
                    ],
                    [
                        80.247161,
                        13.005425
                    ],
                    [
                        80.247154,
                        13.005464
                    ],
                    [
                        80.247083,
                        13.005754
                    ],
                    [
                        80.247015,
                        13.006014
                    ],
                    [
                        80.246856,
                        13.00624
                    ],
                    [
                        80.246583,
                        13.006441
                    ],
                    [
                        80.24615,
                        13.006644
                    ],
                    [
                        80.245374,
                        13.006633
                    ],
                    [
                        80.244949,
                        13.006627
                    ],
                    [
                        80.244929,
                        13.006627
                    ],
                    [
                        80.244523,
                        13.006611
                    ],
                    [
                        80.244253,
                        13.006613
                    ],
                    [
                        80.244001,
                        13.006615
                    ],
                    [
                        80.243638,
                        13.006605
                    ],
                    [
                        80.243604,
                        13.006604
                    ],
                    [
                        80.242876,
                        13.006602
                    ],
                    [
                        80.242681,
                        13.006597
                    ],
                    [
                        80.242415,
                        13.006594
                    ],
                    [
                        80.241869,
                        13.006589
                    ],
                    [
                        80.241352,
                        13.006599
                    ],
                    [
                        80.240977,
                        13.006652
                    ],
                    [
                        80.240616,
                        13.006717
                    ],
                    [
                        80.240302,
                        13.006766
                    ],
                    [
                        80.240187,
                        13.006786
                    ],
                    [
                        80.239931,
                        13.006846
                    ],
                    [
                        80.239691,
                        13.0069
                    ],
                    [
                        80.23926,
                        13.006968
                    ],
                    [
                        80.23842,
                        13.007142
                    ],
                    [
                        80.237991,
                        13.007235
                    ],
                    [
                        80.237604,
                        13.007318
                    ],
                    [
                        80.237308,
                        13.007376
                    ],
                    [
                        80.237095,
                        13.007422
                    ],
                    [
                        80.236854,
                        13.007471
                    ],
                    [
                        80.236734,
                        13.00749
                    ],
                    [
                        80.236644,
                        13.007506
                    ],
                    [
                        80.236385,
                        13.007561
                    ],
                    [
                        80.235721,
                        13.00768
                    ],
                    [
                        80.235161,
                        13.007793
                    ],
                    [
                        80.235058,
                        13.007813
                    ],
                    [
                        80.228676,
                        13.009065
                    ],
                    [
                        80.228425,
                        13.009127
                    ],
                    [
                        80.22834,
                        13.009148
                    ],
                    [
                        80.228242,
                        13.009171
                    ],
                    [
                        80.227901,
                        13.009289
                    ],
                    [
                        80.225926,
                        13.010256
                    ],
                    [
                        80.225815,
                        13.010328
                    ],
                    [
                        80.22497,
                        13.010706
                    ],
                    [
                        80.224857,
                        13.010756
                    ],
                    [
                        80.224726,
                        13.010809
                    ],
                    [
                        80.22446,
                        13.010918
                    ],
                    [
                        80.224104,
                        13.011063
                    ],
                    [
                        80.224015,
                        13.011099
                    ],
                    [
                        80.223282,
                        13.01139
                    ],
                    [
                        80.223198,
                        13.01143
                    ],
                    [
                        80.223024,
                        13.011496
                    ],
                    [
                        80.222801,
                        13.011579
                    ],
                    [
                        80.222419,
                        13.011722
                    ],
                    [
                        80.222377,
                        13.011737
                    ],
                    [
                        80.222331,
                        13.011753
                    ],
                    [
                        80.221986,
                        13.011873
                    ],
                    [
                        80.221907,
                        13.011909
                    ],
                    [
                        80.221836,
                        13.011942
                    ],
                    [
                        80.221798,
                        13.01196
                    ],
                    [
                        80.221747,
                        13.011976
                    ],
                    [
                        80.221575,
                        13.012019
                    ],
                    [
                        80.22148,
                        13.012058
                    ],
                    [
                        80.221307,
                        13.012113
                    ],
                    [
                        80.221065,
                        13.012149
                    ],
                    [
                        80.220237,
                        13.011867
                    ],
                    [
                        80.22002,
                        13.011801
                    ],
                    [
                        80.219878,
                        13.011759
                    ],
                    [
                        80.218362,
                        13.011282
                    ],
                    [
                        80.2183,
                        13.01126
                    ],
                    [
                        80.21785,
                        13.011104
                    ],
                    [
                        80.217769,
                        13.011076
                    ],
                    [
                        80.217511,
                        13.010984
                    ],
                    [
                        80.217071,
                        13.010795
                    ],
                    [
                        80.21688,
                        13.010708
                    ],
                    [
                        80.216842,
                        13.010691
                    ],
                    [
                        80.216328,
                        13.010461
                    ],
                    [
                        80.216107,
                        13.010363
                    ],
                    [
                        80.215735,
                        13.010207
                    ],
                    [
                        80.21558,
                        13.010153
                    ],
                    [
                        80.214793,
                        13.010064
                    ],
                    [
                        80.214735,
                        13.010055
                    ],
                    [
                        80.214537,
                        13.010011
                    ],
                    [
                        80.213284,
                        13.009487
                    ],
                    [
                        80.212311,
                        13.00911
                    ],
                    [
                        80.212157,
                        13.009053
                    ],
                    [
                        80.212306,
                        13.008666
                    ]
                ]
            }
        }
    ]
}